STARLINK-31406          
1 59017U 24036V   26068.39466612 -.00002258  00000+0 -64127-4 0  9998
2 59017  53.1595  66.3225 0001213  92.8597 267.2543 15.30195857115463
TEVEL2-2                
1 63219U 25052K   26068.64848259  .00020339  00000+0  69428-3 0  9991
2 63219  97.3987 324.7700 0004693 105.7930 254.3828 15.30343745 54855
